{"fetched_at":"2026-03-30T06:02:59Z","count":15439,"tles":[{"name":"KUIPER-00166","line1":"1 65779U 25217T   26087.88319770  .00004146  00000+0  57202-3 0  9990","line2":"2 65779  51.9031 298.2529 0001032  98.1083 261.9996 14.79974877 27999","category":"Other"}]}